GLOBALSTAR M035 [-]     
1 25851U 99037A   24102.79153019 -.00000014  00000+0  18862-2 0  9995
2 25851  51.9948 297.0108 0013458   6.7548   6.1949 11.04529415 48594
GLOBALSTAR M032 [-]     
1 25852U 99037B   24102.80875147 -.00000062  00000+0  16416-3 0  9998
2 25852  51.9922 151.9339 0010033 160.3661 199.7527 11.19051046 86498
GLOBALSTAR M051 [-]     
1 25853U 99037C   24102.87832792 -.00000049  00000+0  55477-3 0  9990
2 25853  51.9834   1.3622 0001575 140.4080 219.6845 11.42195178 83100
GLOBALSTAR M030 [-]     
1 25854U 99037D   24102.53364260  .00000008  00000+0  17564-2 0  9992
2 25854  51.9865 195.7479 0003339   0.0286   0.0530 11.55091001100165
GLOBALSTAR M048 [-]     
1 25872U 99041A   24102.74913144 -.00000065  00000+0  14448-3 0  9994
2 25872  51.9361 280.0264 0013939 155.1795 217.7589 11.33844956 76041
GLOBALSTAR M026 [-]     
1 25873U 99041B   24102.67071612 -.00000136  00000+0 -26470-2 0  9999
2 25873  52.0026  59.7763 0001028 256.5302 275.1524 11.06836124100709
GLOBALSTAR M043 [-]     
1 25874U 99041C   24102.89333828 -.00000028  00000+0  12092-2 0  9998
2 25874  51.9445  10.1365 0012545 299.5394 137.7717 11.25677776 74306
GLOBALSTAR M028 [-]     
1 25875U 99041D   24102.55759556 -.00000052  00000+0  30940-3 0  9992
2 25875  51.9648  40.0728 0062985 213.8684 145.8147 12.50553256136177
